NORAD_CAT_ID,OBJECT_NAME,OBJECT_TYPE,EPOCH,MEAN_MOTION,ECCENTRICITY,INCLINATION,RA_OF_ASC_NODE,ARG_OF_PERICENTER,MEAN_ANOMALY,BSTAR,MEAN_MOTION_DOT,MEAN_MOTION_DDOT,TLE_LINE0,TLE_LINE1,TLE_LINE2,SEMIMAJOR_AXIS,PERIOD,APOGEE,PERIGEE,DECAYED
56768.0,STARLINK-6198,PAYLOAD,2024-02-13 11:09:53,14.98324144,0.0002703,70.0001,68.829,265.1649,94.9202,-8.8065e-05,-1.143e-05,0.0,0 STARLINK-6198,1 56768U 23078B   24044.46520631 -.00001143  00000-0 -88065-4 0  9995,2 56768  70.0001  68.8290 0002703 265.1649  94.9202 14.98324144 40044,6950.211,96.107,573.955,570.197,0.0
56768.0,STARLINK-6198,PAYLOAD,2024-02-14 04:47:21,14.98332925,0.0003015,69.9988,66.9778,271.5681,88.5133,-3.8337e-05,-5.5e-06,0.0,0 STARLINK-6198,1 56768U 23078B   24045.19955943 -.00000550  00000-0 -38337-4 0  9992,2 56768  69.9988  66.9778 0003015 271.5681  88.5133 14.98332925 40418,6950.184,96.107,574.144,569.953,0.0
56768.0,STARLINK-6198,PAYLOAD,2024-02-14 11:11:53,14.9833583,0.0002885,69.9995,66.305,269.1108,90.972,3.6051e-05,3.37e-06,0.0,0 STARLINK-6198,1 56768U 23078B   24045.46659484  .00000337  00000-0  36051-4 0  9995,2 56768  69.9995  66.3050 0002885 269.1108  90.9720 14.98335830 40196,6950.175,96.107,574.045,570.035,0.0
56768.0,STARLINK-6198,PAYLOAD,2024-02-15 11:13:55,14.98324487,0.0002748,69.9997,63.7804,270.3197,89.7647,4.3366e-05,4.24e-06,0.0,0 STARLINK-6198,1 56768U 23078B   24046.46800285  .00000424  00000-0  43366-4 0  9997,2 56768  69.9997  63.7804 0002748 270.3197  89.7647 14.98324487 40602,6950.21,96.107,573.985,570.165,0.0
56768.0,STARLINK-6198,PAYLOAD,2024-02-16 11:15:55,14.98334707,0.0002713,69.9997,61.2553,270.5544,89.5304,-1.3156e-05,-2.5e-06,0.0,0 STARLINK-6198,1 56768U 23078B   24047.46939763 -.00000250  00000-0 -13156-4 0  9995,2 56768  69.9997  61.2553 0002713 270.5544  89.5304 14.98334707 40756,6950.178,96.107,573.929,570.158,0.0
56768.0,STARLINK-6198,PAYLOAD,2024-02-17 09:41:49,14.98325587,0.0002729,69.9997,58.8983,266.8431,93.2416,-9.8486e-06,-2.1e-06,0.0,0 STARLINK-6198,1 56768U 23078B   24048.40404285 -.00000210  00000-0 -98486-5 0  9992,2 56768  69.9997  58.8983 0002729 266.8431  93.2416 14.98325587 40892,6950.207,96.107,573.968,570.175,0.0
56768.0,STARLINK-6198,PAYLOAD,2024-02-17 17:42:29,14.98330707,0.0002733,69.9997,58.0568,267.962,92.1226,-3.474e-05,-5.07e-06,0.0,0 STARLINK-6198,1 56768U 23078B   24048.73784103 -.00000507  00000-0 -34740-4 0  9999,2 56768  69.9997  58.0568 0002733 267.9620  92.1226 14.98330707 40684,6950.191,96.107,573.955,570.156,0.0
56768.0,STARLINK-6198,PAYLOAD,2024-02-18 03:19:17,14.98341128,0.0002914,69.9994,57.0464,269.1885,90.894,-0.00014305,-1.8e-05,0.0,0 STARLINK-6198,1 56768U 23078B   24049.13839698 -.00001800  00000-0 -14305-3 0  9995,2 56768  69.9994  57.0464 0002914 269.1885  90.8940 14.98341128 41007,6950.158,96.106,574.049,569.998,0.0
56768.0,STARLINK-6198,PAYLOAD,2024-02-18 09:43:49,14.98332932,0.000285,69.9996,56.3732,267.7802,92.3031,-1.5647e-06,-1.12e-06,0.0,0 STARLINK-6198,1 56768U 23078B   24049.40543729 -.00000112  00000-0 -15647-5 0  9999,2 56768  69.9996  56.3732 0002850 267.7802  92.3031 14.98332932 40786,6950.184,96.107,574.03,570.068,0.0
56768.0,STARLINK-6198,PAYLOAD,2024-02-18 17:44:30,14.98332755,0.0002945,69.9995,55.5322,266.5135,93.5688,-4.8937e-06,-1.51e-06,0.0,0 STARLINK-6198,1 56768U 23078B   24049.73923673 -.00000151  00000-0 -48937-5 0  9996,2 56768  69.9995  55.5322 0002945 266.5135  93.5688 14.98332755 40832,6950.184,96.107,574.096,570.003,0.0
56768.0,STARLINK-6198,PAYLOAD,2024-02-19 03:21:18,14.98326965,0.0002997,69.9994,54.5214,270.4107,89.6709,-2.0286e-06,-1.17e-06,0.0,0 STARLINK-6198,1 56768U 23078B   24050.13980018 -.00000117  00000-0 -20286-5 0  9997,2 56768  69.9994  54.5214 0002997 270.4107  89.6709 14.98326965 41152,6950.202,96.107,574.15,569.984,0.0
56768.0,STARLINK-6198,PAYLOAD,2024-02-19 09:45:50,14.98329065,0.0002943,69.9996,53.8486,270.5609,89.5213,2.9686e-05,2.61e-06,0.0,0 STARLINK-6198,1 56768U 23078B   24050.40683815  .00000261  00000-0  29686-4 0  9992,2 56768  69.9996  53.8486 0002943 270.5609  89.5213 14.98329065 40934,6950.196,96.107,574.106,570.015,0.0
56768.0,STARLINK-6198,PAYLOAD,2024-02-19 17:46:31,14.98327249,0.0002773,70.0002,53.0055,270.1682,89.9159,-1.9928e-05,-3.31e-06,0.0,0 STARLINK-6198,1 56768U 23078B   24050.74064126 -.00000331  00000-0 -19928-4 0  9995,2 56768  70.0002  53.0055 0002773 270.1682  89.9159 14.98327249 40987,6950.201,96.107,573.994,570.139,0.0
56768.0,STARLINK-6198,PAYLOAD,2024-02-20 03:23:19,14.98326825,0.0003015,69.9996,51.9961,269.6186,90.4628,-1.4722e-05,-2.69e-06,0.0,0 STARLINK-6198,1 56768U 23078B   24051.14120082 -.00000269  00000-0 -14722-4 0  9991,2 56768  69.9996  51.9961 0003015 269.6186  90.4628 14.98326825 41305,6950.203,96.107,574.163,569.972,0.0
56768.0,STARLINK-6198,PAYLOAD,2024-02-20 09:47:51,14.98327557,0.0002712,69.9997,51.3221,262.1869,97.8982,-4.1042e-06,-1.42e-06,0.0,0 STARLINK-6198,1 56768U 23078B   24051.40824040 -.00000142  00000-0 -41042-5 0  9991,2 56768  69.9997  51.3221 0002712 262.1869  97.8982 14.98327557 41080,6950.2,96.107,573.95,570.181,0.0
56768.0,STARLINK-6198,PAYLOAD,2024-02-20 17:48:32,14.98327899,0.0003009,69.9998,50.4806,263.9069,96.1747,2.3736e-05,1.9e-06,0.0,0 STARLINK-6198,1 56768U 23078B   24051.74203887  .00000190  00000-0  23736-4 0  9998,2 56768  69.9998  50.4806 0003009 263.9069  96.1747 14.98327899 41137,6950.199,96.107,574.156,569.973,0.0
56768.0,STARLINK-6198,PAYLOAD,2024-02-21 03:25:20,14.98330598,0.0002926,69.9996,49.4704,269.9778,90.1045,1.4186e-05,7.6e-07,0.0,0 STARLINK-6198,1 56768U 23078B   24052.14259748  .00000076  00000-0  14186-4 0  9992,2 56768  69.9996  49.4704 0002926 269.9778  90.1045 14.98330598 41450,6950.191,96.107,574.09,570.022,0.0
56768.0,STARLINK-6198,PAYLOAD,2024-02-21 09:49:52,14.98332381,0.0003008,69.9995,48.7977,268.9941,91.0873,5.7364e-05,5.92e-06,0.0,0 STARLINK-6198,1 56768U 23078B   24052.40963478  .00000592  00000-0  57364-4 0  9991,2 56768  69.9995  48.7977 0003008 268.9941  91.0873 14.98332381 41233,6950.186,96.107,574.141,569.96,0.0
56768.0,STARLINK-6198,PAYLOAD,2024-02-22 03:27:21,14.98330087,0.0002876,69.9998,46.9461,271.9488,88.1341,3.5703e-06,-5e-07,0.0,0 STARLINK-6198,1 56768U 23078B   24053.14399776 -.00000050  00000-0  35703-5 0  9991,2 56768  69.9998  46.9461 0002876 271.9488  88.1341 14.98330087 41605,6950.193,96.107,574.056,570.059,0.0
56768.0,STARLINK-6198,PAYLOAD,2024-02-22 09:51:53,14.98331133,0.0002822,70.0,46.2728,272.2289,87.8547,2.5341e-05,2.09e-06,0.0,0 STARLINK-6198,1 56768U 23078B   24053.41103642  .00000209  00000-0  25341-4 0  9997,2 56768  70.0000  46.2728 0002822 272.2289  87.8547 14.98331133 41387,6950.189,96.107,574.016,570.093,0.0
56768.0,STARLINK-6198,PAYLOAD,2024-02-22 16:16:25,14.98330699,0.0002915,70.0002,45.6003,268.629,91.4536,2.5852e-06,-6.2e-07,0.0,0 STARLINK-6198,1 56768U 23078B   24053.67807649 -.00000062  00000-0  25852-5 0  9999,2 56768  70.0002  45.6003 0002915 268.6290  91.4536 14.98330699 41422,6950.191,96.107,574.082,570.03,0.0
56768.0,STARLINK-6198,PAYLOAD,2024-02-23 03:29:22,14.98317392,0.0003001,70.0001,44.4219,269.1785,90.903,0.00025807,2.987e-05,0.0,0 STARLINK-6198,1 56768U 23078B   24054.14539817  .00002987  00000-0  25807-3 0  9996,2 56768  70.0001  44.4219 0003001 269.1785  90.9030 14.98317392 41753,6950.232,96.108,574.183,570.011,0.0
56768.0,STARLINK-6198,PAYLOAD,2024-02-23 08:17:46,14.98332326,0.0002759,70.0004,43.9178,263.951,96.1335,1.4387e-07,-9.1e-07,0.0,0 STARLINK-6198,1 56768U 23078B   24054.34567458 -.00000091  00000-0  14387-6 0  9999,2 56768  70.0004  43.9178 0002759 263.9510  96.1335 14.98332326 41784,6950.186,96.107,573.968,570.133,0.0
56768.0,STARLINK-6198,PAYLOAD,2024-02-23 22:42:59,14.98328239,0.0002583,70.0009,42.4014,274.3558,85.7306,-4.2963e-06,-1.44e-06,0.0,0 STARLINK-6198,1 56768U 23078B   24054.94651766 -.00000144  00000-0 -42963-5 0  9991,2 56768  70.0009  42.4014 0002583 274.3558  85.7306 14.98328239 41617,6950.198,96.107,573.859,570.268,0.0
56768.0,STARLINK-6198,PAYLOAD,2024-02-24 05:07:31,14.98330037,0.0002786,70.0005,41.7289,273.8393,86.2447,-8.8014e-05,-1.143e-05,0.0,0 STARLINK-6198,1 56768U 23078B   24055.21355897 -.00001143  00000-0 -88014-4 0  9994,2 56768  70.0005  41.7289 0002786 273.8393  86.2447 14.98330037 41919,6950.193,96.107,573.994,570.121,0.0
56768.0,STARLINK-6198,PAYLOAD,2024-02-24 08:19:47,14.98325796,0.000267,70.0008,41.3925,267.56,92.5253,-4.6752e-05,-6.51e-06,0.0,0 STARLINK-6198,1 56768U 23078B   24055.34708050 -.00000651  00000-0 -46752-4 0  9997,2 56768  70.0008  41.3925 0002670 267.5600  92.5253 14.98325796 41672,6950.206,96.107,573.927,570.215,0.0
56768.0,STARLINK-6198,PAYLOAD,2024-02-24 22:45:00,14.98329021,0.0002944,70.0004,39.8771,270.5545,89.5277,-7.7055e-06,-1.85e-06,0.0,0 STARLINK-6198,1 56768U 23078B   24055.94791743 -.00000185  00000-0 -77055-5 0  9997,2 56768  70.0004  39.8771 0002944 270.5545  89.5277 14.98329021 41762,6950.196,96.107,574.107,570.015,0.0
56768.0,STARLINK-6198,PAYLOAD,2024-02-25 05:09:31,14.98333335,0.0002945,70.0006,39.203,268.2029,91.8793,6.0959e-05,6.34e-06,0.0,0 STARLINK-6198,1 56768U 23078B   24056.21495237  .00000634  00000-0  60959-4 0  9998,2 56768  70.0006  39.2030 0002945 268.2029  91.8793 14.98333335 42064,6950.183,96.107,574.094,570.001,0.0
56768.0,STARLINK-6198,PAYLOAD,2024-02-25 08:21:48,14.98333377,0.0002827,70.0007,38.8667,268.6056,91.4779,5.3315e-05,5.43e-06,0.0,0 STARLINK-6198,1 56768U 23078B   24056.34847233  .00000543  00000-0  53315-4 0  9996,2 56768  70.0007  38.8667 0002827 268.6056  91.4779 14.98333377 41828,6950.182,96.107,574.012,570.083,0.0
56768.0,STARLINK-6198,PAYLOAD,2024-02-25 16:22:29,14.98303235,0.0002837,70.0005,38.0252,282.5467,77.5375,0.00052513,6.174e-05,0.0,0 STARLINK-6198,1 56768U 23078B   24056.68228205  .00006174  00000-0  52513-3 0  9999,2 56768  70.0005  38.0252 0002837 282.5467  77.5375 14.98303235 42132,6950.276,96.109,574.112,570.169,0.0
